{"type":"FeatureCollection","source":"synthetic","generated_at":"2026-10-01T21:21:36Z","features":[{"type":"Feature","properties":{"highway":"primary","name":"Andheri-Vile Parle","maxspeed":50,"flood_prone":false,"condition":"open"},"geometry":{"type":"LineString","coordinates":[[72.8468,19.1197],[72.8439,19.099]]}},{"type":"Feature","properties":{"highway":"secondary","name":"Andheri-Juhu","maxspeed":40,"flood_prone":false,"condition":"open"},"geometry":{"type":"LineString","coordinates":[[72.8468,19.1197],[72.827,19.107]]}},{"type":"Feature","properties":{"highway":"secondary","name":"Andheri-Milan Subway","maxspeed":35,"flood_prone":true,"condition":"open"},"geometry":{"type":"LineString","coordinates":[[72.8468,19.1197],[72.8493,19.1034]]}},{"type":"Feature","properties":{"highway":"primary","name":"Andheri-Goregaon","maxspeed":60,"flood_prone":false,"condition":"open"},"geometry":{"type":"LineString","coordinates":[[72.8468,19.1197],[72.8485,19.1529]]}},{"type":"Feature","properties":{"highway":"primary","name":"Vile Parle-Santacruz","maxspeed":50,"flood_prone":false,"condition":"open"},"geometry":{"type":"LineString","coordinates":[[72.8439,19.099],[72.8432,19.0824]]}},{"type":"Feature","properties":{"highway":"primary","name":"Santacruz-Bandra","maxspeed":50,"flood_prone":false,"condition":"open"},"geometry":{"type":"LineString","coordinates":[[72.8432,19.0824],[72.8402,19.0544]]}},{"type":"Feature","properties":{"highway":"primary","name":"Bandra-Mahim","maxspeed":50,"flood_prone":false,"condition":"open"},"geometry":{"type":"LineString","coordinates":[[72.8402,19.0544],[72.8406,19.0407]]}},{"type":"Feature","properties":{"highway":"secondary","name":"Bandra-Worli","maxspeed":45,"flood_prone":false,"condition":"open"},"geometry":{"type":"LineString","coordinates":[[72.8402,19.0544],[72.8193,19.0176]]}},{"type":"Feature","properties":{"highway":"primary","name":"Mahim-Dadar","maxspeed":40,"flood_prone":true,"condition":"open"},"geometry":{"type":"LineString","coordinates":[[72.8406,19.0407],[72.8429,19.0209]]}},{"type":"Feature","properties":{"highway":"secondary","name":"Mahim-Hindmata","maxspeed":35,"flood_prone":true,"condition":"open"},"geometry":{"type":"LineString","coordinates":[[72.8406,19.0407],[72.8367,19.0251]]}},{"type":"Feature","properties":{"highway":"secondary","name":"Dadar-Hindmata","maxspeed":35,"flood_prone":true,"condition":"open"},"geometry":{"type":"LineString","coordinates":[[72.8429,19.0209],[72.8367,19.0251]]}},{"type":"Feature","properties":{"highway":"primary","name":"Dadar-Sion","maxspeed":45,"flood_prone":true,"condition":"open"},"geometry":{"type":"LineString","coordinates":[[72.8429,19.0209],[72.8619,19.0389]]}},{"type":"Feature","properties":{"highway":"primary","name":"Dadar-Parel","maxspeed":40,"flood_prone":true,"condition":"open"},"geometry":{"type":"LineString","coordinates":[[72.8429,19.0209],[72.8357,19.004]]}},{"type":"Feature","properties":{"highway":"secondary","name":"Dadar-Worli","maxspeed":40,"flood_prone":true,"condition":"open"},"geometry":{"type":"LineString","coordinates":[[72.8429,19.0209],[72.8193,19.0176]]}},{"type":"Feature","properties":{"highway":"secondary","name":"Hindmata-Sion Circle","maxspeed":30,"flood_prone":true,"condition":"open"},"geometry":{"type":"LineString","coordinates":[[72.8367,19.0251],[72.8618,19.0399]]}},{"type":"Feature","properties":{"highway":"secondary","name":"Sion-Sion Circle","maxspeed":30,"flood_prone":true,"condition":"open"},"geometry":{"type":"LineString","coordinates":[[72.8619,19.0389],[72.8618,19.0399]]}},{"type":"Feature","properties":{"highway":"primary","name":"Sion-Kurla","maxspeed":50,"flood_prone":true,"condition":"open"},"geometry":{"type":"LineString","coordinates":[[72.8619,19.0389],[72.8793,19.0717]]}},{"type":"Feature","properties":{"highway":"primary","name":"Sion-Byculla","maxspeed":45,"flood_prone":true,"condition":"open"},"geometry":{"type":"LineString","coordinates":[[72.8619,19.0389],[72.834,18.9779]]}},{"type":"Feature","properties":{"highway":"secondary","name":"Sion Circle-Kurla","maxspeed":35,"flood_prone":true,"condition":"open"},"geometry":{"type":"LineString","coordinates":[[72.8618,19.0399],[72.8793,19.0717]]}},{"type":"Feature","properties":{"highway":"secondary","name":"Kurla-Chembur","maxspeed":40,"flood_prone":true,"condition":"open"},"geometry":{"type":"LineString","coordinates":[[72.8793,19.0717],[72.8996,19.0614]]}},{"type":"Feature","properties":{"highway":"primary","name":"Kurla-Ghatkopar","maxspeed":50,"flood_prone":true,"condition":"open"},"geometry":{"type":"LineString","coordinates":[[72.8793,19.0717],[72.9073,19.086]]}},{"type":"Feature","properties":{"highway":"secondary","name":"Kurla-Vikhroli","maxspeed":40,"flood_prone":true,"condition":"open"},"geometry":{"type":"LineString","coordinates":[[72.8793,19.0717],[72.9267,19.107]]}},{"type":"Feature","properties":{"highway":"secondary","name":"Chembur-Ghatkopar","maxspeed":40,"flood_prone":false,"condition":"open"},"geometry":{"type":"LineString","coordinates":[[72.8996,19.0614],[72.9073,19.086]]}},{"type":"Feature","properties":{"highway":"primary","name":"Ghatkopar-Vikhroli","maxspeed":50,"flood_prone":false,"condition":"open"},"geometry":{"type":"LineString","coordinates":[[72.9073,19.086],[72.9267,19.107]]}},{"type":"Feature","properties":{"highway":"secondary","name":"Vikhroli-Powai","maxspeed":40,"flood_prone":false,"condition":"open"},"geometry":{"type":"LineString","coordinates":[[72.9267,19.107],[72.906,19.1176]]}},{"type":"Feature","properties":{"highway":"primary","name":"Parel-Byculla","maxspeed":45,"flood_prone":true,"condition":"open"},"geometry":{"type":"LineString","coordinates":[[72.8357,19.004],[72.834,18.9779]]}},{"type":"Feature","properties":{"highway":"secondary","name":"Parel-Worli","maxspeed":40,"flood_prone":false,"condition":"open"},"geometry":{"type":"LineString","coordinates":[[72.8357,19.004],[72.8193,19.0176]]}},{"type":"Feature","properties":{"highway":"primary","name":"Byculla-Colaba","maxspeed":45,"flood_prone":true,"condition":"open"},"geometry":{"type":"LineString","coordinates":[[72.834,18.9779],[72.8147,18.9067]]}},{"type":"Feature","properties":{"highway":"secondary","name":"Worli-Colaba","maxspeed":40,"flood_prone":false,"condition":"open"},"geometry":{"type":"LineString","coordinates":[[72.8193,19.0176],[72.8147,18.9067]]}},{"type":"Feature","properties":{"highway":"secondary","name":"Milan Subway-Andheri","maxspeed":35,"flood_prone":true,"condition":"open"},"geometry":{"type":"LineString","coordinates":[[72.8493,19.1034],[72.8468,19.1197]]}},{"type":"Feature","properties":{"highway":"primary","name":"Goregaon-Malad","maxspeed":60,"flood_prone":false,"condition":"open"},"geometry":{"type":"LineString","coordinates":[[72.8485,19.1529],[72.8485,19.1872]]}},{"type":"Feature","properties":{"highway":"primary","name":"Malad-Borivali","maxspeed":60,"flood_prone":false,"condition":"open"},"geometry":{"type":"LineString","coordinates":[[72.8485,19.1872],[72.8566,19.2294]]}},{"type":"Feature","properties":{"highway":"primary","name":"Ghatkopar-Mulund","maxspeed":60,"flood_prone":false,"condition":"open"},"geometry":{"type":"LineString","coordinates":[[72.9073,19.086],[72.9559,19.1724]]}},{"type":"Feature","properties":{"highway":"secondary","name":"Mulund-Borivali","maxspeed":50,"flood_prone":false,"condition":"open"},"geometry":{"type":"LineString","coordinates":[[72.9559,19.1724],[72.8566,19.2294]]}},{"type":"Feature","properties":{"highway":"secondary","name":"Powai-Mulund","maxspeed":45,"flood_prone":false,"condition":"open"},"geometry":{"type":"LineString","coordinates":[[72.906,19.1176],[72.9559,19.1724]]}}]}